[{"OBJECT_NAME":"LATINSAT B","OBJECT_ID":"2002-058B","EPOCH":"2026-03-09T16:34:18.291936","MEAN_MOTION":14.76864114,"ECCENTRICITY":0.0085493,"INCLINATION":64.5543,"RA_OF_ASC_NODE":195.5711,"ARG_OF_PERICENTER":289.4538,"MEAN_ANOMALY":69.7343,"EPHEMERIS_TYPE":0,"CLASSIFICATION_TYPE":"U","NORAD_CAT_ID":27606,"ELEMENT_SET_NO":999,"REV_AT_EPOCH":24740,"BSTAR":0.00017955575,"MEAN_MOTION_DOT":1.192e-5,"MEAN_MOTION_DDOT":0},{"OBJECT_NAME":"SITRO-AIS 27","OBJECT_ID":"2024-039T","EPOCH":"2026-03-09T23:22:19.197120","MEAN_MOTION":14.92842486,"ECCENTRICITY":0.01447292,"INCLINATION":95.3935,"RA_OF_ASC_NODE":167.0882,"ARG_OF_PERICENTER":314.6456,"MEAN_ANOMALY":44.3041,"EPHEMERIS_TYPE":0,"CLASSIFICATION_TYPE":"U","NORAD_CAT_ID":59068,"ELEMENT_SET_NO":999,"REV_AT_EPOCH":10993,"BSTAR":0.00034082381,"MEAN_MOTION_DOT":4.294e-5,"MEAN_MOTION_DDOT":0}]
